MAKERSAT 0              
1 43016U 17073D   18278.27281410  .00000640  00000-0  56313-4 0  9995
2 43016  97.7092 204.8452 0257430 273.2321  83.9471 14.78330616 47390
ASTERIA                 
1 43020U 98067NH  18278.16868077  .00014845  00000-0  17403-3 0  9998
2 43020  51.6416 180.9099 0002068 201.6727 158.4179 15.61750249 49661
DELLINGR (RBLE)         
1 43021U 98067NJ  18278.24791475  .00007014  00000-0  94923-4 0  9998
2 43021  51.6395 183.6422 0002088 192.4300 167.6642 15.58945784 49634
OSIRIS-3U               
1 43027U 98067NL  18278.31993024  .00048188  00000-0  37237-3 0  9997
2 43027  51.6358 170.5531 0003602 177.9332 182.1682 15.71403676 49697
AEROCUBE 7B             
1 43042U 17071F   18277.84799865  .00003124  00000-0  88321-4 0  9996
2 43042  51.6383 227.0321 0004437 309.8901  50.1693 15.39504300 46493
AEROCUBE 7C             
1 43043U 17071G   18277.52338785  .00002777  00000-0  79649-4 0  9998
2 43043  51.6383 228.6217 0004577 310.7723  49.2863 15.39504750 46412
CHEFSAT                 
1 43044U 17071H   18277.84385833  .00005406  00000-0  13933-3 0  9995
2 43044  51.6388 225.5538 0004448 312.1107  47.9499 15.40840318 46481
ASGARDIA 1              
1 43049U 17071N   18277.30057216  .00003048  00000-0  86100-4 0  9999
2 43049  51.6390 229.3942 0002281 338.7085  21.3804 15.39620011 46370
ISARA                   
1 43050U 17071P   18277.47046970  .00005765  00000-0  14916-3 0  9997
2 43050  51.6380 227.5474 0002133 338.0917  21.9976 15.40581571 46414
FAUNA                   
1 43052U 17071R   18277.27844948  .00004028  00000-0  10995-3 0  9992
2 43052  51.6385 229.2583 0002127 335.1228  24.9653 15.39789777 46373
CORVUS BC3              
1 43118U 18004H   18277.78062043  .00000684  00000-0  32671-4 0  9996
2 43118  97.5219 340.5281 0012182  74.7959 285.4623 15.22420436 40384
MICROMAS-2A             
1 43131U 18004W   18277.75984914  .00001617  00000-0  71396-4 0  9992
2 43131  97.5233 340.7359 0011308  77.7007 282.5494 15.23169038 40393
GOMX4-B                 
1 43196U 18015E   18277.55338028  .00000388  00000-0  18977-4 0  9992
2 43196  97.3598  44.3353 0019644 129.7656 230.5317 15.23759292 37183
GOMX4-A                 
1 43197U 18015F   18278.28223006  .00000627  00000-0  28835-4 0  9993
2 43197  97.3613  45.0545 0020754 128.0931 289.8300 15.23779528 37302
1KUNS-PF                
1 43466U 98067NP  18278.13869481  .00012184  00000-0  16591-3 0  9990
2 43466  51.6392 188.1521 0001336 123.5203 236.5917 15.57981268 22825
UBAKUSAT                
1 43467U 98067NQ  18278.29171292  .00009413  00000-0  13299-3 0  9997
2 43467  51.6394 187.6780 0002921 161.9075 198.2021 15.57304746 22856
BATSU-CS1 (IRAZU)       
1 43468U 98067NR  18277.79259206  .00012939  00000-0  17222-3 0  9991
2 43468  51.6391 189.5913 0001448 118.5997 241.5142 15.58527924122760
CUBERRT                 
1 43546U 98067NU  18278.16467807  .00013836  00000-0  20081-3 0  9992
2 43546  51.6392 189.8188 0005135 240.7852 119.2627 15.56110111 12941
TEMPEST-D               
1 43547U 98067NV  18277.79310902  .00009304  00000-0  14129-3 0  9995
2 43547  51.6390 191.8363 0005262 242.4647 117.5809 15.55338130 12563
RAINCUBE                
1 43548U 98067NW  18278.17310999  .00009358  00000-0  13975-3 0  9992
2 43548  51.6391 189.8745 0005015 250.7137 109.3312 15.55793272 13075
HALOSAT                 
1 43549U 98067NX  18277.27416098  .00010378  00000-0  15440-3 0  9993
2 43549  51.6388 194.3711 0005069 249.1305 110.9144 15.55755825 12492
ENDUROSAT ONE           
1 43551U 98067NZ  18278.15507983  .00010636  00000-0  15528-3 0  9992
2 43551  51.6388 189.7544 0005413 260.7195  99.3184 15.56241937 13047
EQUISAT                 
1 43552U 98067PA  18277.83759103  .00009115  00000-0  13497-3 0  9993
2 43552  51.6389 191.3850 0005694 260.3779  99.6570 15.56059925 12958
AEROCUBE 12A            
1 43556U 18046C   18278.19197197  .00001070  00000-0  51585-4 0  9998
2 43556  51.6435 206.2627 0007993 232.0971 127.9287 15.27872039 12335
AEROCUBE 12B            
1 43557U 18046D   18278.19241060  .00000855  00000-0  43834-4 0  9996
2 43557  51.6435 206.2653 0008009 232.0975 127.9280 15.27844468 12280
UITMSAT-1               
1 43589U 98067PD  18277.80763172  .00008713  00000-0  13142-3 0  9991
2 43589  51.6388 191.9317 0005002 270.1932  89.8487 15.55620694  8683
MAYA-1                  
1 43590U 98067PE  18278.12782203  .00009560  00000-0  14332-3 0  9998
2 43590  51.6390 190.3206 0005089 272.7681  87.2727 15.55655408  8660
BHUTAN-1                
1 43591U 98067PF  18278.12647478  .00009810  00000-0  14667-3 0  9992
2 43591  51.6390 190.3118 0005179 274.3112  85.7288 15.55695473  8661
SIRIUSSAT-1             
1 43595U 98067PG  18277.30741071  .00009938  00000-0  15100-3 0  9993
2 43595  51.6386 194.5869 0003236 206.7734 153.3091 15.55237883  7716
SIRIUSSAT-2             
1 43596U 98067PH  18277.37605325  .00009829  00000-0  15019-3 0  9990
2 43596  51.6396 194.3004 0003794 213.5720 146.5032 15.55095869  7723
TANUSHA-3               
1 43597U 98067PJ  18277.37365607  .00011264  00000-0  17007-3 0  9992
2 43597  51.6376 194.2755 0003034 225.1153 134.9592 15.55255272  7728
SURFSAT                 
1 43614U 18070B   18277.93129678  .00002387  00000-0  67603-4 0  9990
2 43614  93.0248 257.5514 0014834 207.6248 152.4221 15.36261485  2970
CP-7 (DAVE)             
1 43615U 18070C   18278.19171561  .00002411  00000-0  68272-4 0  9999
2 43615  93.0245 257.6587 0014626 206.3075 153.7444 15.36272475  3010
ELFIN-B                 
1 43616U 18070D   18278.19097740 -.00000006  00000-0  00000+0 0  9995
2 43616  93.0211 257.6414 0015717 211.7883 148.2725 15.36325573  3011
ELFIN-A                 
1 43617U 18070E   18278.12560885 -.00000006  00000-0  00000+0 0  9994
2 43617  93.0249 257.6379 0015393 207.9121 152.1569 15.36350076  3000
